0 OPS 6391 (FLTSATCOM 1)
1 10669U 78016A   26062.31221523  .00000044  00000-0  00000+0 0  9996
2 10669   7.3682 292.4274 0006801 278.5359 302.3917  0.99001854753527
0 INTELSAT 4A-F6
1 10778U 78035A   26062.47149479 -.00000305  00000-0  00000+0 0  9995
2 10778   8.9743 312.3748 0008728 318.8984 199.0010  1.00294401121106
0 OPS 8790
1 10787U 78038A   26062.30493439  .00000113  00000-0  00000+0 0  9994
2 10787   3.7545 322.9647 0017943 303.4408  22.7676  1.00476482 24196
0 YURI (BSE)
1 10792U 78039A   26062.51529645 -.00000048  00000-0  00000+0 0  9991
2 10792   5.7355 285.0462 0019455 331.3921 160.7907  1.00198458117701
0 OTS 2
1 10855U 78044A   26062.34046789 -.00000057  00000-0  00000+0 0  9991
2 10855   8.2337 304.6902 0011723 358.2227 178.5430  0.99140097202945
0 GOES 3
1 10953U 78062A   26062.47582814 -.00000267  00000-0  00000+0 0  9991
2 10953   7.1409 300.0544 0002831 354.6494 199.3130  0.99365908127483
0 COMSTAR 3
1 10975U 78068A   26062.41040826 -.00000089  00000-0  00000+0 0  9999
2 10975   9.7064 315.8462 0024329 320.9901 223.4799  0.99200049 45146
0 GEOS 2
1 10981U 78071A   26062.47704148 -.00000224  00000-0  00000+0 0  9991
2 10981   5.8330 287.4914 0006258   9.7173 203.5490  0.99382655172946
0 RADUGA 4
1 10987U 78073A   26062.46560142 -.00000366  00000-0  00000+0 0  9999
2 10987   5.0558 279.8534 0011838  33.1252 125.2176  1.00250110118548
0 ANIK B1 (TELESAT-4)
1 11153U 78116A   26061.73239175 -.00000015  00000-0  00000-0 0  9993
2 11153   9.6909 316.7406 0021098 329.2905 212.3647  0.99805481134965
0 EKRAN 3
1 11273U 79015A   26062.17120701 -.00000011  00000-0  00000+0 0  9993
2 11273   5.3870 282.7773 0041964   7.9140 355.2816  1.00321744133953
0 RADUGA 5
1 11343U 79035A   26062.51749332 -.00000113  00000-0  00000+0 0  9991
2 11343   5.5584 283.5554 0002630 226.4807 272.5536  1.00296578128305
0 GORIZONT 2
1 11440U 79062A   26062.51738556 -.00000123  00000-0  00000+0 0  9996
2 11440   5.9972 286.9359 0006850 359.8858 138.0219  1.00236830136963
0 WESTAR 3
1 11484U 79072A   26062.00873672 -.00000293  00000-0  00000+0 0  9996
2 11484  10.4275 321.8200 0004392 338.2034 187.0003  0.99953597139453
0 EKRAN 4
1 11561U 79087A   26062.49464120 -.00000269  00000-0  00000+0 0  9998
2 11561   5.8571 285.8513 0003251 119.8792  25.1525  1.00305044 46313
0 GORIZONT 3
1 11648U 79105A   26062.53042898 -.00000169  00000-0  00000+0 0  9993
2 11648   6.1865 288.8005 0010776 271.2491 235.1975  1.00197770121420
0 OPS 6393 (FLTSATCOM 3)
1 11669U 80004A   26062.07613318 -.00000308  00000-0  00000+0 0  9991
2 11669   6.3884 307.1015 0021098 246.4327 298.5932  1.00195003168797
0 RADUGA 6
1 11708U 80016A   26062.51749326 -.00000097  00000-0  00000+0 0  9991
2 11708   5.9756 287.6336 0002643 341.9544 153.5751  1.00199189121101
0 GOES 4
1 11964U 80074A   26062.37060292 -.00000254  00000-0  00000+0 0  9996
2 11964   8.2145 303.7385 0032089 103.0150 199.2874  0.99231464126382
0 RADUGA 7
1 12003U 80081A   26062.43310126 -.00000306  00000-0  00000+0 0  9998
2 12003   6.2053 290.1584 0011855 321.0063  11.5626  1.00344058122245
0 SBS 1
1 12065U 80091A   26061.87688181  .00000014  00000-0  00000+0 0  9998
2 12065  10.1764 318.4830 0003974 196.8837 338.5371  0.99825691 45410
0 EKRAN 6
1 12120U 80104A   26062.16956034  .00000064  00000-0  00000+0 0  9998
2 12120   6.4984 291.5963 0007196  61.0391 284.4609  1.00245258126343
0 ESIAFI 1 (COMSTAR 4)
1 12309U 81018A   26062.22085649 -.00000076  00000-0  00000+0 0  9998
2 12309   8.9041 311.8924 0004033  45.7538 314.2554  1.00261799166382
0 RADUGA 8
1 12351U 81027A   26062.40857873  .00000081  00000-0  00000+0 0  9996
2 12351   6.5471 290.4174 0079859 271.9494 324.0494  1.00395999121485
0 GOES 5
1 12472U 81049A   26062.14113352 -.00000207  00000-0  00000+0 0  9993
2 12472   9.5481 316.3502 0004669 336.7595 190.2431  1.00211746121789
0 APPLE
1 12545U 81057B   26062.13169716 -.00000303  00000-0  00000+0 0  9994
2 12545   7.2766 297.6607 0022168 229.9400 344.8162  1.00040404121329
0 EKRAN 7
1 12564U 81061A   26062.03586354 -.00000327  00000-0  00000+0 0  9996
2 12564   6.7796 293.9606 0006270  44.1163 295.7860  1.00272457128448
0 RADUGA 9
1 12618U 81069A   26062.03577688 -.00000312  00000-0  00000+0 0  9998
2 12618   6.8415 294.4357 0000348  61.9299 276.7736  1.00208127 46277
0 HIMAWARI 2 (GMS 2)
1 12677U 81076A   26062.41012427  .00000060  00000-0  00000+0 0  9997
2 12677   8.2086 304.8832 0012115 332.1060 269.0275  0.99549235131172
0 SBS 2
1 12855U 81096A   26062.52271623 -.00000378  00000-0  00000+0 0  9997
2 12855  10.4295 322.1281 0005132 268.9520 244.8325  1.00143092117553
0 RADUGA 10
1 12897U 81102A   26062.51637221 -.00000032  00000-0  00000+0 0  9997
2 12897   6.9549 295.7142 0002919 270.7696 207.1884  1.00285958116286
0 SATCOM 3R
1 12967U 81114A   26060.19505697 -.00000226  00000-0  00000+0 0  9996
2 12967  12.2146 332.6389 0006348 326.7658 207.4129  1.00098545126988
0 INTELSAT 503
1 12994U 81119A   26061.01590447 -.00000206  00000-0  00000-0 0  9999
2 12994  11.4055 327.7793 0048031 268.5472 281.2713  0.99469737125636
0 SATCOM 4
1 13035U 82004A   26061.07237673 -.00000316  00000-0  00000-0 0  9997
2 13035  12.8923 336.3243 0044503 201.9235 157.9102  0.99597624124149
0 EKRAN 8
1 13056U 82009A   26062.16964701  .00000093  00000-0  00000+0 0  9995
2 13056   7.3065 297.2524 0030539 340.4301 359.7938  0.99930028117557
0 WESTAR 4
1 13069U 82014A   26062.06364367 -.00000264  00000-0  00000+0 0  9997
2 13069  12.7469 335.6987 0005908 310.8545 232.3567  0.99777404 45384
0 INTELSAT 504
1 13083U 82017A   26062.47128284 -.00000163  00000-0  00000+0 0  9995
2 13083  11.5118 328.2398 0011755 233.9269 308.6801  0.99228563140704
0 INSAT 1A
1 13129U 82031A   26062.49227289 -.00000212  00000-0  00000+0 0  9994
2 13129   7.3719 299.2307 0015697  52.5585  70.1378  1.00365300165371
0 COSMOS 1366
1 13177U 82044A   26062.51909181 -.00000122  00000-0  00000+0 0  9992
2 13177   8.5412 298.2732 0007758 110.9970  14.7040  1.00288880132555
0 WESTAR 5
1 13269U 82058A   26061.96572425 -.00000013  00000-0  00000+0 0  9993
2 13269  13.2270 337.9550 0018694 280.9045 279.9573  0.99215684118484
0 ANIK D1 (TELESAT 6)
1 13431U 82082A   26061.54729913 -.00000219  00000-0  00000+0 0  9999
2 13431  12.3286 333.6555 0008382 340.0045 197.7020  1.00143086 45539
0 EKRAN 9
1 13554U 82093A   26062.03664354 -.00000349  00000-0  00000+0 0  9993
2 13554   7.3234 300.4309 0028129   7.7288 330.1249  1.00261071118934
0 GORIZONT 6
1 13624U 82103A   26062.41006159  .00000075  00000-0  00000+0 0  9993
2 13624   7.5691 302.6373 0003378 353.0267 202.4359  1.00257409119887
0 SATCOM C5
1 13631U 82105A   26062.08030941 -.00000111  00000-0  00000+0 0  9994
2 13631  12.2182 333.2164 0006195  16.1694  94.1938  1.00273002125313
0 SBS 3
1 13651U 82110B   26062.41534828  .00000093  00000-0  00000+0 0  9990
2 13651  12.6142 335.1120 0004745  99.3429  92.4930  0.99927020 45481
0 ANIK C3 (TELESAT-5)
1 13652U 82110C   26061.70669590 -.00000298  00000-0  00000-0 0  9996
2 13652  12.5901 334.9263 0002321 345.3494 199.7389  0.99901278 45445
0 SAKURA 2A (CS-2A)
1 13782U 83006A   26062.07691318 -.00000264  00000-0  00000+0 0  9991
2 13782  10.4600 321.1381 0013138 331.4092 203.4814  0.99407057126799
0 RADUGA 12
1 13974U 83028A   26062.51769306 -.00000085  00000-0  00000+0 0  9991
2 13974   8.4142 307.0201 0002988 357.1577 116.2389  1.00249257168320
0 SATCOM 1R
1 13984U 83030A   26061.68128646 -.00000321  00000-0  00000-0 0  9992
2 13984  13.2990 339.2756 0003999 111.6527  64.9610  0.99850506129414
0 GOES 6
1 14050U 83041A   26062.32956685 -.00000082  00000-0  00000+0 0  9996
2 14050  10.3592 321.9070 0002361 306.4375 262.1209  1.00217666214956
0 INTELSAT 506
1 14077U 83047A   26062.14954022 -.00000258  00000-0  00000+0 0  9999
2 14077  12.5741 334.3381 0041143 350.6797 204.3205  0.99161697123039
0 NAHUEL I2 (ANIK C2)
1 14133U 83059B   26062.00190983 -.00000204  00000-0  00000+0 0  9999
2 14133  13.0109 336.9569 0034853 116.5791 243.7942  0.99126236 45099
0 PALAPA B1
1 14134U 83059C   26061.88147517  .00000118  00000-0  00000+0 0  9993
2 14134  11.7210 330.2067 0001694  47.5350 141.3958  1.00155077119729
0 GALAXY 1
1 14158U 83065A   26060.15183634 -.00000260  00000-0  00000+0 0  9994
2 14158  13.6738 342.4689 0004143 310.2198 250.8979  1.00145013 45544
0 ARABSAT 1DR (TELSTAR 3A)
1 14234U 83077A   26061.81253956  .00000001  00000-0  00000+0 0  9993
2 14234  13.8593 342.7513 0022603 171.4523 188.6023  0.99520465 45283
0 INSAT 1B
1 14318U 83089B   26061.70669590 -.00000326  00000-0  00000-0 0  9994
2 14318  11.3123 327.7186 0010229 261.8531 287.2847  1.00181557124142
0 SATCOM 2R
1 14328U 83094A   26061.63986457 -.00000321  00000-0  00000+0 0  9991
2 14328  14.3700 346.7216 0014046  60.1961 134.6006  0.99414534154494
0 GALAXY 2
1 14365U 83098A   26062.42544615  .00000082  00000-0  00000+0 0  9993
2 14365  13.6865 342.7668 0002882  66.5288 123.1881  1.00167029131174
0 EKRAN 11
1 14377U 83100A   26061.14320705 -.00000291  00000-0  00000+0 0  9993
2 14377   7.9956 305.2611 0004674 348.0504  11.9143  1.00314598 46306
0 INTELSAT 507
1 14421U 83105A   26062.28179425 -.00000081  00000-0  00000+0 0  9992
2 14421  12.0964 331.8468 0003222  47.5163 145.3686  0.99689667136175
0 YURI 2A (BS-2A)
1 14659U 84005A   26062.08167987 -.00000267  00000-0  00000+0 0  9999
2 14659  11.2133 325.3279 0012762 233.9251 322.8471  0.99052964117260
0 RADUGA 14
1 14725U 84016A   26062.51878443 -.00000077  00000-0  00000+0 0  9998
2 14725   8.7744 311.4851 0000534 125.2819 342.0719  1.00297167117046
0 COSMOS 1540
1 14783U 84022A   26062.51878422 -.00000084  00000-0  00000+0 0  9994
2 14783   9.5423 305.3783 0007677 300.3737 174.1607  1.00282308119963
0 COSMOS 1546
1 14867U 84031A   26062.52009083 -.00000123  00000-0  00000+0 0  9991
2 14867   8.8796 312.1328 0025174  13.2173  99.6333  1.00257634 46317
0 STTW-T2
1 14899U 84035A   26061.56544550 -.00000336  00000-0  00000+0 0  9992
2 14899   9.6384 318.5652 0005664 196.6385 343.7122  1.00269682 46301
